{"type": "FeatureCollection", "features": [{"id": "c6b15164b9c0f0bcbd3d58ec091ecd7b", "type": "Feature", "geometry": {"type": "LineString", "coordinates": [[149.005535, -35.28226], [149.005956, -35.27934], [149.008629, -35.27922], [149.008478, -35.281621], [149.000948, -35.282591], [148.986098, -35.28368], [148.976862, -35.286573], [148.961187, -35.278993], [148.957969, -35.278924], [148.954295, -35.278567], [148.944454, -35.27752], [148.937791, -35.27678], [148.926139, -35.277161], [148.914386, -35.277908], [148.910092, -35.280597], [148.905032, -35.287639], [148.899456, -35.298553], [148.898855, -35.320899], [148.896161, -35.322935], [148.89503, -35.323351], [148.890663, -35.328308], [148.876702, -35.3356], [148.870811, -35.34537], [148.86439, -35.3608], [148.858026, -35.40541], [148.857557, -35.409419], [148.85213, -35.432602], [148.850323, -35.441665], [148.851783, -35.448122], [148.847627, -35.476765], [148.846453, -35.484009], [148.938446, -35.613565], [148.939826, -35.610539], [148.939167, -35.610041], [148.848108, -35.483709], [148.851157, -35.464766], [148.851467, -35.463207], [148.853676, -35.448147], [148.852566, -35.441814], [148.860748, -35.40304], [148.870029, -35.342873], [148.873041, -35.338133], [148.878497, -35.333855], [148.88991, -35.32784], [148.894227, -35.322707], [148.89527, -35.322125], [148.897907, -35.320329], [148.899251, -35.297385], [148.904384, -35.287271], [148.909509, -35.279703], [148.914036, -35.276829], [148.921972, -35.276107], [148.93774, -35.276216], [148.943384, -35.276669], [148.948019, -35.277258], [148.95789, -35.278417], [148.961289, -35.278512], [148.97539, -35.285796], [148.98611, -35.283407], [149.006153, -35.279048], [149.009671, -35.279068], [149.009663, -35.28162], [149.008951, -35.281718], [149.005568, -35.282221]]}, "properties": {"id": "7ed63e49-70d0-ad2b-5fad-951f345b14f8", "color": "#C864F0", "volumes": {"waypoint": "WP", "zoiv": 100, "xoiv": "700", "yoiv": 150}, "label": "USER0001"}}, {"id": "b9bc2c2e-5546-bab4-2aa1-76ab010d8c6c", "geometry": {"coordinates": [[[148.86141526589873, -35.34839851156816], [148.86238963718725, -35.34208184339482], [148.86267937128153, -35.34099108184659], [148.86319917494833, -35.3399592310436], [148.86621117494838, -35.3352192310436], [148.86688191436627, -35.33434628163111], [148.86771729100278, -35.3335745541884], [148.8731732910028, -35.32929655418841], [148.87433148340563, -35.328548575842596], [148.88444577382046, -35.32321803550743], [148.8878865621681, -35.319126868820305], [148.8887972246661, -35.31823333674525], [148.8898927342325, -35.31749210259908], [148.89038010355557, -35.31722014771315], [148.89155971360265, -35.297082519052374], [148.89173818057628, -35.29600180081342], [148.89214110870358, -35.294962408535824], [148.89727410870358, -35.28484840853582], [148.8976509291632, -35.28420977792237], [148.9027759291632, -35.276641777922364], [148.9036649646128, -35.27559470104085], [148.90479285771093, -35.27471553871905], [148.90931985771095, -35.27184153871906], [148.91050540535184, -35.27122196936922], [148.91180869152348, -35.27078938369048], [148.9131862541425, -35.270558207581956], [148.9211222541425, -35.26983620758195], [148.92203696039127, -35.26979789649654], [148.93780496039125, -35.269906896496536], [148.93849067466934, -35.2699367254632], [148.94413467466936, -35.2703897254632], [148.9445640994891, -35.27043420795065], [148.94915521338237, -35.271017631053816], [148.95856936487337, -35.272122990346496], [148.96155150291568, -35.2722063393062], [148.96289589684628, -35.27234158379924], [148.96419056960994, -35.27266775547886], [148.96539546098703, -35.27317476182632], [148.97663415173014, -35.27898020990609], [148.98408912773832, -35.27731883512218], [148.9841345993017, -35.2773088238191], [149.00417759930173, -35.272949823819104], [149.0062064241853, -35.272738823831276], [149.0097244241853, -35.272758823831275], [149.01122146500052, -35.27288789806962], [149.01265925228827, -35.273253154898015], [149.01398283868207, -35.27384063543606], [149.01514164118728, -35.27462788816488], [149.01609137429216, -35.27558482694826], [149.01679574241004, -35.27667488082298], [149.01722782697425, -35.27785639161733], [149.01737111517434, -35.2790842059855], [149.01736311517433, -35.28163620598549], [149.01720529756687, -35.282890937954086], [149.01674602125792, -35.28409487170079], [149.01600364309937, -35.2851998871003], [149.0150078352639, -35.28616181770273], [149.0137983992754, -35.28694221602603], [149.01242367517884, -35.28750989026648], [149.0109386094327, -35.28784215100646], [149.01027627037632, -35.287933315651856], [149.00765469367803, -35.28832310373322], [149.0076267478165, -35.28833207169498], [149.00614082224016, -35.288549770232365], [149.0046316152549, -35.28852575642707], [149.00455882630484, -35.288512684280406], [149.0021438841842, -35.28882377244203], [149.00163440936555, -35.28887520988196], [148.98784908278716, -35.28988613383104], [148.9796115425709, -35.292466385438416], [148.97828202625064, -35.29277411263236], [148.9769067981949, -35.29288222124875], [148.9755301280509, -35.292787231188214], [148.9741963318877, -35.29249220025373], [148.972948345628, -35.292006625717654], [148.95899135768255, -35.28525740921836], [148.95776756793634, -35.28523116885401], [148.95706220165656, -35.28518942536319], [148.95338820165657, -35.2848324253632], [148.95330350354843, -35.28482380501946], [148.94346250354843, -35.28377680501946], [148.94341975627245, -35.28377215730102], [148.9374246120155, -35.283106330083534], [148.92659042943384, -35.28346058888576], [148.91725220114134, -35.284054110244945], [148.91596376071348, -35.2848609608063], [148.91193288467204, -35.29047072939997], [148.90712213482357, -35.29988689221311], [148.90655327149173, -35.321038007043825], [148.90636452753273, -35.32229414911901], [148.90587360929047, -35.32349415208514], [148.90510027071977, -35.32458972927775], [148.90407563002714, -35.32553679599891], [148.90138163002715, -35.327572795998904], [148.90040325881023, -35.32820044788524], [148.9001565514251, -35.32831159312874], [148.8969064381892, -35.332000810282494], [148.8959483805978, -35.3328962928632], [148.89480203321003, -35.33362831914917], [148.88265348345087, -35.33997365435753], [148.8779370206569, -35.347795728962396], [148.87649741916164, -35.351255166911585], [148.8683873628127, -35.403831156605165], [148.86833555865874, -35.40411495389502], [148.86036113723924, -35.441905251636335], [148.86129794013326, -35.44725009193145], [148.8613211225553, -35.4488998771262], [148.8591121225553, -35.46395987712619], [148.85906692722648, -35.46422159780692], [148.8587757395309, -35.46568599012102], [148.85608948629044, -35.48237529649487], [148.94528235688963, -35.60611829530376], [148.94605438614374, -35.606829163922086], [148.94682086363284, -35.60790115572281], [148.94731610580814, -35.609075433509034], [148.94752090898342, -35.61030646306874], [148.94742733163807, -35.61154650956299], [148.9470390023604, -35.612747488508994], [148.9456590023604, -35.61577348850899], [148.94495852602645, -35.61693135561773], [148.94398482451635, -35.617947991335946], [148.94277874830283, -35.61878074393801], [148.94139089685902, -35.61939467629271], [148.93987949581867, -35.619764031608426], [148.9383079541899, -35.61987331402829], [148.93674220410662, -35.619717938740145], [148.93524793472545, -35.619304424326856], [148.93388783631642, -35.61865011928698], [148.93271897016814, -35.617782474199444], [148.93179037465035, -35.61673789006764], [148.83979737465035, -35.48718189006764], [148.83911354715144, -35.48591739462117], [148.83878240685647, -35.48456119392407], [148.83881986625195, -35.48317845831557], [148.83998692952125, -35.475977260425694], [148.8439986075002, -35.44832892251645], [148.84275170615922, -35.442814373229766], [148.84262329424607, -35.44173204991115], [148.84272360387635, -35.4406477348594], [148.84453060387634, -35.4315847348594], [148.8445677173066, -35.43141346492877], [148.84992653178043, -35.40852173912344], [148.85036099368338, -35.404807969893085], [148.85037793218189, -35.40467748152103], [148.85674193218188, -35.36006748152102], [148.8571018828707, -35.35876379736822], [148.86141526589873, -35.34839851156816]]], "type": "Polygon"}, "type": "Feature", "properties": {"color": "#C864F0", "label": "USER0001", "id": "b9bc2c2e-5546-bab4-2aa1-76ab010d8c6c", "volumes": {"waypoint": "WP", "zoiv": 100, "xoiv": "700", "yoiv": 150}, "parent": "7ed63e49-70d0-ad2b-5fad-951f345b14f8"}}]}